NORAD_CAT_ID,OBJECT_NAME,OBJECT_TYPE,EPOCH,MEAN_MOTION,ECCENTRICITY,INCLINATION,RA_OF_ASC_NODE,ARG_OF_PERICENTER,MEAN_ANOMALY,BSTAR,MEAN_MOTION_DOT,MEAN_MOTION_DDOT,TLE_LINE0,TLE_LINE1,TLE_LINE2,SEMIMAJOR_AXIS,PERIOD,APOGEE,PERIGEE,DECAYED
54766.0,STARLINK-5471,PAYLOAD,2024-06-29 18:23:14,15.08824005,0.0001021,53.2178,298.0821,78.7174,281.3933,-0.00014366,-2.572e-05,0.0,0 STARLINK-5471,1 54766U 22175J   24181.76613779 -.00002572  00000-0 -14366-3 0  9998,2 54766  53.2178 298.0821 0001021  78.7174 281.3933 15.08824005 84479,6917.929,95.439,540.501,539.088,0.0
54766.0,STARLINK-5471,PAYLOAD,2024-06-30 00:44:46,15.08830307,0.0001295,53.2185,296.8949,73.1069,287.0065,-1.7007e-05,-5.58e-06,0.0,0 STARLINK-5471,1 54766U 22175J   24182.03109333 -.00000558  00000-0 -17007-4 0  9993,2 54766  53.2185 296.8949 0001295  73.1069 287.0065 15.08830307 84515,6917.91,95.438,540.671,538.879,0.0
54766.0,STARLINK-5471,PAYLOAD,2024-06-30 13:27:50,15.08845655,0.0001002,53.2147,294.5162,44.8223,315.285,3.7992e-05,3.17e-06,0.0,0 STARLINK-5471,1 54766U 22175J   24182.56100405  .00000317  00000-0  37992-4 0  9998,2 54766  53.2147 294.5162 0001002  44.8223 315.2850 15.08845655 86754,6917.863,95.437,540.421,539.035,0.0
54766.0,STARLINK-5471,PAYLOAD,2024-06-30 16:38:36,15.08850352,0.0001205,53.218,293.9207,75.4985,284.6141,0.0001019,1.335e-05,0.0,0 STARLINK-5471,1 54766U 22175J   24182.69347969  .00001335  00000-0  10190-3 0  9991,2 54766  53.2180 293.9207 0001205  75.4985 284.6141 15.08850352 84619,6917.849,95.437,540.547,538.88,0.0
54766.0,STARLINK-5471,PAYLOAD,2024-07-01 13:18:38,15.08825544,0.0001022,53.2166,290.0524,61.8725,298.237,0.00035125,5.305e-05,0.0,0 STARLINK-5471,1 54766U 22175J   24183.55460951  .00005305  00000-0  35125-3 0  9990,2 54766  53.2166 290.0524 0001022  61.8725 298.2370 15.08825544 84745,6917.925,95.438,540.497,539.083,0.0
54766.0,STARLINK-5471,PAYLOAD,2024-07-02 00:26:19,15.08845454,0.0001102,53.2166,287.9746,59.4191,300.691,0.00023552,3.463e-05,0.0,0 STARLINK-5471,1 54766U 22175J   24184.01828190  .00003463  00000-0  23552-3 0  9999,2 54766  53.2166 287.9746 0001102  59.4191 300.6910 15.08845454 84813,6917.864,95.437,540.491,538.966,0.0
54766.0,STARLINK-5471,PAYLOAD,2024-07-02 13:09:25,15.08842899,9.19e-05,53.2158,285.5949,79.2812,280.8283,-9.9763e-05,-1.875e-05,0.0,0 STARLINK-5471,1 54766U 22175J   24184.54821134 -.00001875  00000-0 -99763-4 0  9993,2 54766  53.2158 285.5949 0000919  79.2812 280.8283 15.08842899 84898,6917.872,95.437,540.372,539.101,0.0
54766.0,STARLINK-5471,PAYLOAD,2024-07-03 16:10:58,15.08843969,0.0001038,53.2155,280.5391,74.9072,285.2035,0.00016409,2.325e-05,0.0,0 STARLINK-5471,1 54766U 22175J   24185.67428664  .00002325  00000-0  16409-3 0  9993,2 54766  53.2155 280.5391 0001038  74.9072 285.2035 15.08843969 85067,6917.868,95.437,540.451,539.015,0.0
54766.0,STARLINK-5471,PAYLOAD,2024-07-04 12:50:59,15.08837721,0.0001054,53.2159,276.6707,85.9454,274.1659,7.6995e-05,9.38e-06,0.0,0 STARLINK-5471,1 54766U 22175J   24186.53541080  .00000938  00000-0  76995-4 0  9992,2 54766  53.2159 276.6707 0001054  85.9454 274.1659 15.08837721 85194,6917.887,95.438,540.482,539.023,0.0
54766.0,STARLINK-5471,PAYLOAD,2024-07-05 12:41:46,15.08843723,0.0001044,53.2168,272.212,86.0394,274.0717,0.0001083,1.436e-05,0.0,0 STARLINK-5471,1 54766U 22175J   24187.52900718  .00001436  00000-0  10830-3 0  9998,2 54766  53.2168 272.2120 0001044  86.0394 274.0717 15.08843723 87509,6917.869,95.437,540.456,539.012,0.0
54766.0,STARLINK-5471,PAYLOAD,2024-07-05 22:14:04,15.08856069,0.000108,53.2166,270.4276,84.8541,275.2575,0.00025689,3.805e-05,0.0,0 STARLINK-5471,1 54766U 22175J   24187.92643898  .00003805  00000-0  25689-3 0  9995,2 54766  53.2166 270.4276 0001080  84.8541 275.2575 15.08856069 87567,6917.831,95.437,540.443,538.949,0.0
54766.0,STARLINK-5471,PAYLOAD,2024-07-06 12:32:33,15.0883374,0.0001295,53.217,267.7545,94.706,265.408,-1.1538e-05,-4.71e-06,0.0,0 STARLINK-5471,1 54766U 22175J   24188.52261173 -.00000471  00000-0 -11538-4 0  9991,2 54766  53.2170 267.7545 0001295  94.7060 265.4080 15.08833740 85497,6917.9,95.438,540.66,538.869,0.0
54766.0,STARLINK-5471,PAYLOAD,2024-07-06 14:07:56,15.08835419,0.0001285,53.2172,267.4566,90.4626,269.6514,8.8911e-06,-1.46e-06,0.0,0 STARLINK-5471,1 54766U 22175J   24188.58885118 -.00000146  00000-0  88911-5 0  9996,2 54766  53.2172 267.4566 0001285  90.4626 269.6514 15.08835419 87663,6917.894,95.438,540.648,538.87,0.0
54766.0,STARLINK-5471,PAYLOAD,2024-07-06 22:04:52,15.08840312,0.0001289,53.2168,265.9702,94.3234,265.7905,4.1262e-05,3.69e-06,0.0,0 STARLINK-5471,1 54766U 22175J   24188.92004897  .00000369  00000-0  41262-4 0  9994,2 54766  53.2168 265.9702 0001289  94.3234 265.7905 15.08840312 87710,6917.879,95.438,540.636,538.853,0.0
54766.0,STARLINK-5471,PAYLOAD,2024-07-07 12:23:20,15.08838605,0.0001375,53.2174,263.2946,96.0151,264.0998,8.5976e-05,1.081e-05,0.0,0 STARLINK-5471,1 54766U 22175J   24189.51621144  .00001081  00000-0  85976-4 0  9992,2 54766  53.2174 263.2946 0001375  96.0151 264.0998 15.08838605 87807,6917.885,95.438,540.701,538.798,0.0
54766.0,STARLINK-5471,PAYLOAD,2024-07-08 12:14:06,15.08860241,0.0001141,53.2163,258.8329,92.9631,267.1492,-0.00050356,-8.297e-05,0.0,0 STARLINK-5471,1 54766U 22175J   24190.50979936 -.00008297  00000-0 -50356-3 0  9999,2 54766  53.2163 258.8329 0001141  92.9631 267.1492 15.08860241 85799,6917.819,95.436,540.473,538.894,0.0
54766.0,STARLINK-5471,PAYLOAD,2024-07-08 21:46:26,15.08850374,0.0001326,53.2157,257.0484,81.4708,278.6434,0.00027306,4.062e-05,0.0,0 STARLINK-5471,1 54766U 22175J   24190.90724762  .00004062  00000-0  27306-3 0  9991,2 54766  53.2157 257.0484 0001326  81.4708 278.6434 15.08850374 88015,6917.849,95.437,540.631,538.796,0.0
54766.0,STARLINK-5471,PAYLOAD,2024-07-09 04:07:59,15.08839532,0.0001666,53.2159,255.8585,85.5794,274.5388,9.6418e-05,1.247e-05,0.0,0 STARLINK-5471,1 54766U 22175J   24191.17221252  .00001247  00000-0  96418-4 0  9990,2 54766  53.2159 255.8585 0001666  85.5794 274.5388 15.08839532 85891,6917.882,95.438,540.899,538.594,0.0
54766.0,STARLINK-5471,PAYLOAD,2024-07-09 12:04:54,15.08843541,0.0001312,53.2148,254.3708,86.1198,273.9944,0.00011926,1.611e-05,0.0,0 STARLINK-5471,1 54766U 22175J   24191.50340982  .00001611  00000-0  11926-3 0  9994,2 54766  53.2148 254.3708 0001312  86.1198 273.9944 15.08843541 88106,6917.87,95.437,540.642,538.827,0.0
54766.0,STARLINK-5471,PAYLOAD,2024-07-10 10:20:18,15.08840694,0.0001325,53.2143,250.2073,87.5529,272.5615,0.00015385,2.162e-05,0.0,0 STARLINK-5471,1 54766U 22175J   24192.43077264  .00002162  00000-0  15385-3 0  9992,2 54766  53.2143 250.2073 0001325  87.5529 272.5615 15.08840694 86089,6917.878,95.438,540.66,538.827,0.0
54766.0,STARLINK-5471,PAYLOAD,2024-07-11 13:21:52,15.08846026,0.0001399,53.2152,245.1518,92.9213,267.1939,0.00023997,3.534e-05,0.0,0 STARLINK-5471,1 54766U 22175J   24193.55685195  .00003534  00000-0  23997-3 0  9996,2 54766  53.2152 245.1518 0001399  92.9213 267.1939 15.08846026 88410,6917.862,95.437,540.695,538.759,0.0
54766.0,STARLINK-5471,PAYLOAD,2024-07-12 03:40:20,15.08840856,0.0001526,53.2161,242.4731,102.385,257.7313,0.00013154,1.806e-05,0.0,0 STARLINK-5471,1 54766U 22175J   24194.15301390  .00001806  00000-0  13154-3 0  9999,2 54766  53.2161 242.4731 0001526 102.3850 257.7313 15.08840856 86348,6917.878,95.438,540.798,538.687,0.0
54766.0,STARLINK-5471,PAYLOAD,2024-07-12 10:01:53,15.08834973,0.0001226,53.2147,241.2864,85.5355,274.5777,2.5144e-05,1.12e-06,0.0,0 STARLINK-5471,1 54766U 22175J   24194.41797741  .00000112  00000-0  25144-4 0  9999,2 54766  53.2147 241.2864 0001226  85.5355 274.5777 15.08834973 86383,6917.896,95.438,540.609,538.913,0.0
54766.0,STARLINK-5471,PAYLOAD,2024-07-12 19:34:11,15.08840321,0.0001205,53.2149,239.5022,84.5047,275.6083,8.7827e-05,1.11e-05,0.0,0 STARLINK-5471,1 54766U 22175J   24194.81541519  .00001110  00000-0  87827-4 0  9998,2 54766  53.2149 239.5022 0001205  84.5047 275.6083 15.08840321 88608,6917.879,95.438,540.578,538.911,0.0
54766.0,STARLINK-5471,PAYLOAD,2024-07-13 09:52:40,15.08838699,0.0001263,53.2175,236.8284,94.8583,265.2553,5.5249e-05,5.91e-06,0.0,0 STARLINK-5471,1 54766U 22175J   24195.41157850  .00000591  00000-0  55249-4 0  9991,2 54766  53.2175 236.8284 0001263  94.8583 265.2553 15.08838699 88691,6917.884,95.438,540.623,538.876,0.0
54766.0,STARLINK-5471,PAYLOAD,2024-07-13 19:24:58,15.0884775,0.0001268,53.2177,235.0438,91.0493,269.0645,6.7269e-05,7.83e-06,0.0,0 STARLINK-5471,1 54766U 22175J   24195.80901290  .00000783  00000-0  67269-4 0  9997,2 54766  53.2177 235.0438 0001268  91.0493 269.0645 15.08847750 86598,6917.857,95.437,540.599,538.845,0.0
54766.0,STARLINK-5471,PAYLOAD,2024-07-14 11:18:50,15.08837865,0.0001338,53.2177,232.0704,93.1249,266.9896,0.00012993,1.78e-05,0.0,0 STARLINK-5471,1 54766U 22175J   24196.47141950  .00001780  00000-0  12993-3 0  9991,2 54766  53.2177 232.0704 0001338  93.1249 266.9896 15.08837865 86692,6917.887,95.438,540.678,538.826,0.0
54766.0,STARLINK-5471,PAYLOAD,2024-07-14 19:15:44,15.08874482,0.0001187,53.2178,230.5836,77.4861,282.6264,-0.00029545,-4.991e-05,0.0,0 STARLINK-5471,1 54766U 22175J   24196.80260044 -.00004991  00000-0 -29545-3 0  9994,2 54766  53.2178 230.5836 0001187  77.4861 282.6264 15.08874482 86745,6917.775,95.435,540.461,538.819,0.0
54766.0,STARLINK-5471,PAYLOAD,2024-07-15 11:09:37,15.08839288,0.0001254,53.2168,227.6108,88.7402,271.3734,0.0001091,1.449e-05,0.0,0 STARLINK-5471,1 54766U 22175J   24197.46501994  .00001449  00000-0  10910-3 0  9998,2 54766  53.2168 227.6108 0001254  88.7402 271.3734 15.08839288 86847,6917.883,95.438,540.615,538.88,0.0
54766.0,STARLINK-5471,PAYLOAD,2024-07-16 11:00:24,15.08842303,0.0001257,53.2164,223.1501,91.5672,268.5464,6.6192e-05,7.66e-06,0.0,0 STARLINK-5471,1 54766U 22175J   24198.45861749  .00000766  00000-0  66192-4 0  9990,2 54766  53.2164 223.1501 0001257  91.5672 268.5464 15.08842303 89152,6917.873,95.437,540.608,538.869,0.0
